{
  "type": "FeatureCollection",
  "features": [
    {
      "type": "Feature",
      "properties": {
        "norad_id": 43706,
        "name": "BEIDOU-3 M17 (C36)",
        "group": "beidou",
        "lat": 36.49375339734568,
        "lon": -139.1911966332691,
        "alt_km": 21526.648045524485,
        "timestamp": "2025-12-16T19:34:24.532571+00:00",
        "meta_object_name": "BEIDOU-3 M17 (C36)",
        "meta_object_id": "2018-093A",
        "meta_epoch": "2025-12-15T07:56:44.520576",
        "meta_mean_motion": 1.86228523,
        "meta_eccentricity": 0.00061371,
        "meta_inclination": 54.1729,
        "meta_ra_of_asc_node": 188.5337,
        "meta_arg_of_pericenter": 307.6759,
        "meta_mean_anomaly": 184.25,
        "meta_ephemeris_type": 0,
        "meta_classification_type": "U",
        "meta_norad_cat_id": 43706,
        "meta_element_set_no": 999,
        "meta_rev_at_epoch": 4811,
        "meta_bstar": 0,
        "meta_mean_motion_dot": 1.13e-06,
        "meta_mean_motion_ddot": 0,
        "tle_line1": "1 43706U 18093A   25349.33107084  .00000113  00000+0  00000+0 0  9993",
        "tle_line2": "2 43706  54.1729 188.5337 0006137 307.6759 184.2500  1.86228523 48110"
      },
      "geometry": {
        "type": "Point",
        "coordinates": [
          -139.1911966332691,
          36.49375339734568
        ]
      }
    },
    {
      "type": "Feature",
      "properties": {
        "norad_id": 43707,
        "name": "BEIDOU-3 M18 (C37)",
        "group": "beidou",
        "lat": 31.344906113177984,
        "lon": -17.632353785956198,
        "alt_km": 21539.33874511798,
        "timestamp": "2025-12-16T19:34:24.532583+00:00",
        "meta_object_name": "BEIDOU-3 M18 (C37)",
        "meta_object_id": "2018-093B",
        "meta_epoch": "2025-12-14T23:54:02.185632",
        "meta_mean_motion": 1.86226745,
        "meta_eccentricity": 0.00063121,
        "meta_inclination": 54.1734,
        "meta_ra_of_asc_node": 188.5369,
        "meta_arg_of_pericenter": 353.2198,
        "meta_mean_anomaly": 6.8394,
        "meta_ephemeris_type": 0,
        "meta_classification_type": "U",
        "meta_norad_cat_id": 43707,
        "meta_element_set_no": 999,
        "meta_rev_at_epoch": 4810,
        "meta_bstar": 0,
        "meta_mean_motion_dot": 1.11e-06,
        "meta_mean_motion_ddot": 0,
        "tle_line1": "1 43707U 18093B   25348.99585863  .00000111  00000+0  00000+0 0  9998",
        "tle_line2": "2 43707  54.1734 188.5369 0006312 353.2198   6.8394  1.86226745 48104"
      },
      "geometry": {
        "type": "Point",
        "coordinates": [
          -17.632353785956198,
          31.344906113177984
        ]
      }
    },
    {
      "type": "Feature",
      "properties": {
        "norad_id": 44204,
        "name": "BEIDOU-3 IGSO-1 (C38)",
        "group": "beidou",
        "lat": 58.392567158355625,
        "lon": 133.57798505157137,
        "alt_km": 35860.358791488004,
        "timestamp": "2025-12-16T19:34:24.532595+00:00",
        "meta_object_name": "BEIDOU-3 IGSO-1 (C38)",
        "meta_object_id": "2019-023A",
        "meta_epoch": "2025-11-19T14:15:02.708640",
        "meta_mean_motion": 1.00252177,
        "meta_eccentricity": 0.0026966,
        "meta_inclination": 58.4003,
        "meta_ra_of_asc_node": 39.8168,
        "meta_arg_of_pericenter": 221.2202,
        "meta_mean_anomaly": 126.9723,
        "meta_ephemeris_type": 0,
        "meta_classification_type": "U",
        "meta_norad_cat_id": 44204,
        "meta_element_set_no": 999,
        "meta_rev_at_epoch": 510,
        "meta_bstar": 0,
        "meta_mean_motion_dot": -2.26e-06,
        "meta_mean_motion_ddot": 0,
        "tle_line1": "1 44204U 19023A   25323.59378135 -.00000226  00000+0  00000+0 0  9994",
        "tle_line2": "2 44204  58.4003  39.8168 0026966 221.2202 126.9723  1.00252177  5102"
      },
      "geometry": {
        "type": "Point",
        "coordinates": [
          133.57798505157137,
          58.392567158355625
        ]
      }
    },
    {
      "type": "Feature",
      "properties": {
        "norad_id": 44231,
        "name": "BEIDOU-2 G8 (C01)",
        "group": "beidou",
        "lat": 1.6713106910168736,
        "lon": 163.71098915097602,
        "alt_km": 35823.30251606828,
        "timestamp": "2025-12-16T19:34:24.532630+00:00",
        "meta_object_name": "BEIDOU-2 G8 (C01)",
        "meta_object_id": "2019-027A",
        "meta_epoch": "2025-12-15T22:37:58.102176",
        "meta_mean_motion": 1.00267349,
        "meta_eccentricity": 0.00087641,
        "meta_inclination": 1.6701,
        "meta_ra_of_asc_node": 74.7184,
        "meta_arg_of_pericenter": 258.0815,
        "meta_mean_anomaly": 235.9838,
        "meta_ephemeris_type": 0,
        "meta_classification_type": "U",
        "meta_norad_cat_id": 44231,
        "meta_element_set_no": 999,
        "meta_rev_at_epoch": 2424,
        "meta_bstar": 0,
        "meta_mean_motion_dot": -2.27e-06,
        "meta_mean_motion_ddot": 0,
        "tle_line1": "1 44231U 19027A   25349.94303359 -.00000227  00000+0  00000+0 0  9992",
        "tle_line2": "2 44231   1.6701  74.7184 0008764 258.0815 235.9838  1.00267349 24248"
      },
      "geometry": {
        "type": "Point",
        "coordinates": [
          163.71098915097602,
          1.6713106910168736
        ]
      }
    },
    {
      "type": "Feature",
      "properties": {
        "norad_id": 44337,
        "name": "BEIDOU-3 IGSO-2 (C39)",
        "group": "beidou",
        "lat": -17.419867610357336,
        "lon": 147.8400127266241,
        "alt_km": 35902.56355442058,
        "timestamp": "2025-12-16T19:34:24.532644+00:00",
        "meta_object_name": "BEIDOU-3 IGSO-2 (C39)",
        "meta_object_id": "2019-035A",
        "meta_epoch": "2025-12-15T20:48:46.059264",
        "meta_mean_motion": 1.0027048,
        "meta_eccentricity": 0.00373444,
        "meta_inclination": 55.2266,
        "meta_ra_of_asc_node": 160.4736,
        "meta_arg_of_pericenter": 202.467,
        "meta_mean_anomaly": 153.4937,
        "meta_ephemeris_type": 0,
        "meta_classification_type": "U",
        "meta_norad_cat_id": 44337,
        "meta_element_set_no": 999,
        "meta_rev_at_epoch": 2382,
        "meta_bstar": 0,
        "meta_mean_motion_dot": -3.5e-07,
        "meta_mean_motion_ddot": 0,
        "tle_line1": "1 44337U 19035A   25349.86719976 -.00000035  00000+0  00000+0 0  9992",
        "tle_line2": "2 44337  55.2266 160.4736 0037344 202.4670 153.4937  1.00270480 23827"
      },
      "geometry": {
        "type": "Point",
        "coordinates": [
          147.8400127266241,
          -17.419867610357336
        ]
      }
    },
    {
      "type": "Feature",
      "properties": {
        "norad_id": 44542,
        "name": "BEIDOU-3 M24 (C46)",
        "group": "beidou",
        "lat": 54.29221988527014,
        "lon": -76.70382845360353,
        "alt_km": 21511.748254311893,
        "timestamp": "2025-12-16T19:34:24.532656+00:00",
        "meta_object_name": "BEIDOU-3 M24 (C46)",
        "meta_object_id": "2019-061A",
        "meta_epoch": "2025-12-15T01:36:18.331776",
        "meta_mean_motion": 1.86229339,
        "meta_eccentricity": 0.00095644,
        "meta_inclination": 54.4001,
        "meta_ra_of_asc_node": 188.9375,
        "meta_arg_of_pericenter": 24.7073,
        "meta_mean_anomaly": 335.4071,
        "meta_ephemeris_type": 0,
        "meta_classification_type": "U",
        "meta_norad_cat_id": 44542,
        "meta_element_set_no": 999,
        "meta_rev_at_epoch": 4236,
        "meta_bstar": 0,
        "meta_mean_motion_dot": 1.12e-06,
        "meta_mean_motion_ddot": 0,
        "tle_line1": "1 44542U 19061A   25349.06687884  .00000112  00000+0  00000+0 0  9998",
        "tle_line2": "2 44542  54.4001 188.9375 0009564  24.7073 335.4071  1.86229339 42364"
      },
      "geometry": {
        "type": "Point",
        "coordinates": [
          -76.70382845360353,
          54.29221988527014
        ]
      }
    },
    {
      "type": "Feature",
      "properties": {
        "norad_id": 44543,
        "name": "BEIDOU-3 M23 (C45)",
        "group": "beidou",
        "lat": 4.191472223176577,
        "lon": -168.13596725756997,
        "alt_km": 21511.80980547297,
        "timestamp": "2025-12-16T19:34:24.532668+00:00",
        "meta_object_name": "BEIDOU-3 M23 (C45)",
        "meta_object_id": "2019-061B",
        "meta_epoch": "2025-12-12T05:53:39.748416",
        "meta_mean_motion": 1.86227487,
        "meta_eccentricity": 0.00061471,
        "meta_inclination": 54.3988,
        "meta_ra_of_asc_node": 189.0008,
        "meta_arg_of_pericenter": 23.325,
        "meta_mean_anomaly": 158.0349,
        "meta_ephemeris_type": 0,
        "meta_classification_type": "U",
        "meta_norad_cat_id": 44543,
        "meta_element_set_no": 999,
        "meta_rev_at_epoch": 4231,
        "meta_bstar": 0,
        "meta_mean_motion_dot": 7.9e-07,
        "meta_mean_motion_ddot": 0,
        "tle_line1": "1 44543U 19061B   25346.24559894  .00000079  00000+0  00000+0 0  9997",
        "tle_line2": "2 44543  54.3988 189.0008 0006147  23.3250 158.0349  1.86227487 42313"
      },
      "geometry": {
        "type": "Point",
        "coordinates": [
          -168.13596725756997,
          4.191472223176577
        ]
      }
    }
  ]
}